CCSDS_OMM_VERS = 2.0
CREATION_DATE  = 
ORIGINATOR     = 

OBJECT_NAME    = ALOS-2
OBJECT_ID      = 2014-029A
CENTER_NAME    = EARTH
REF_FRAME      = TEME
TIME_SYSTEM    = UTC
MEAN_ELEMENT_THEORY = SGP/SGP4

EPOCH          = 2026-03-07T23:02:58.776000
MEAN_MOTION    = 14.79493895
ECCENTRICITY   = .00015258
INCLINATION    = 97.9196
RA_OF_ASC_NODE = 165.5826
ARG_OF_PERICENTER = 96.0698
MEAN_ANOMALY   = 264.0688

EPHEMERIS_TYPE = 0
CLASSIFICATION_TYPE = U
NORAD_CAT_ID   = 39766
ELEMENT_SET_NO = 999
REV_AT_EPOCH   = 63661
BSTAR          = .31435553E-3
MEAN_MOTION_DOT = .2298E-4
MEAN_MOTION_DDOT = 0

CCSDS_OMM_VERS = 2.0
CREATION_DATE  = 
ORIGINATOR     = 

OBJECT_NAME    = YAOGAN-29
OBJECT_ID      = 2015-069A
CENTER_NAME    = EARTH
REF_FRAME      = TEME
TIME_SYSTEM    = UTC
MEAN_ELEMENT_THEORY = SGP/SGP4

EPOCH          = 2026-03-08T00:57:53.508096
MEAN_MOTION    = 14.82994435
ECCENTRICITY   = .0001999
INCLINATION    = 98.0142
RA_OF_ASC_NODE = 95.4649
ARG_OF_PERICENTER = 40.7727
MEAN_ANOMALY   = 319.3636

EPHEMERIS_TYPE = 0
CLASSIFICATION_TYPE = U
NORAD_CAT_ID   = 41038
ELEMENT_SET_NO = 999
REV_AT_EPOCH   = 55563
BSTAR          = .11727E-3
MEAN_MOTION_DOT = .899E-5
MEAN_MOTION_DDOT = 0

CCSDS_OMM_VERS = 2.0
CREATION_DATE  = 
ORIGINATOR     = 

OBJECT_NAME    = ASTRO-H (HITOMI)
OBJECT_ID      = 2016-012A
CENTER_NAME    = EARTH
REF_FRAME      = TEME
TIME_SYSTEM    = UTC
MEAN_ELEMENT_THEORY = SGP/SGP4

EPOCH          = 2026-03-07T23:33:23.702112
MEAN_MOTION    = 15.09992196
ECCENTRICITY   = .00099217
INCLINATION    = 31.0009
RA_OF_ASC_NODE = 7.5702
ARG_OF_PERICENTER = 313.9796
MEAN_ANOMALY   = 46.0024

EPHEMERIS_TYPE = 0
CLASSIFICATION_TYPE = U
NORAD_CAT_ID   = 41337
ELEMENT_SET_NO = 999
REV_AT_EPOCH   = 55197
BSTAR          = .2886635E-3
MEAN_MOTION_DOT = .4905E-4
MEAN_MOTION_DDOT = 0

CCSDS_OMM_VERS = 2.0
CREATION_DATE  = 
ORIGINATOR     = 

OBJECT_NAME    = HXMT (HUIYAN)
OBJECT_ID      = 2017-034A
CENTER_NAME    = EARTH
REF_FRAME      = TEME
TIME_SYSTEM    = UTC
MEAN_ELEMENT_THEORY = SGP/SGP4

EPOCH          = 2026-03-08T00:00:35.896608
MEAN_MOTION    = 15.17434335
ECCENTRICITY   = .0032697
INCLINATION    = 43.0154
RA_OF_ASC_NODE = 26.0648
ARG_OF_PERICENTER = 225.7497
MEAN_ANOMALY   = 134.0666

EPHEMERIS_TYPE = 0
CLASSIFICATION_TYPE = U
NORAD_CAT_ID   = 42758
ELEMENT_SET_NO = 999
REV_AT_EPOCH   = 48228
BSTAR          = .43245E-3
MEAN_MOTION_DOT = .87E-4
MEAN_MOTION_DDOT = 0

CCSDS_OMM_VERS = 2.0
CREATION_DATE  = 
ORIGINATOR     = 

OBJECT_NAME    = SAOCOM 1A
OBJECT_ID      = 2018-076A
CENTER_NAME    = EARTH
REF_FRAME      = TEME
TIME_SYSTEM    = UTC
MEAN_ELEMENT_THEORY = SGP/SGP4

EPOCH          = 2026-03-08T00:07:30.119808
MEAN_MOTION    = 14.82167820
ECCENTRICITY   = .0001294
INCLINATION    = 97.8887
RA_OF_ASC_NODE = 255.2013
ARG_OF_PERICENTER = 84.8832
MEAN_ANOMALY   = 275.2529

EPHEMERIS_TYPE = 0
CLASSIFICATION_TYPE = U
NORAD_CAT_ID   = 43641
ELEMENT_SET_NO = 999
REV_AT_EPOCH   = 40111
BSTAR          = .11285E-3
MEAN_MOTION_DOT = .846E-5
MEAN_MOTION_DDOT = 0

CCSDS_OMM_VERS = 2.0
CREATION_DATE  = 
ORIGINATOR     = 

OBJECT_NAME    = H-2A R/B
OBJECT_ID      = 2018-084L
CENTER_NAME    = EARTH
REF_FRAME      = TEME
TIME_SYSTEM    = UTC
MEAN_ELEMENT_THEORY = SGP/SGP4

EPOCH          = 2026-03-07T20:24:13.200192
MEAN_MOTION    = 15.41251089
ECCENTRICITY   = .00255794
INCLINATION    = 98.8728
RA_OF_ASC_NODE = 283.8448
ARG_OF_PERICENTER = 31.5348
MEAN_ANOMALY   = 328.7421

EPHEMERIS_TYPE = 0
CLASSIFICATION_TYPE = U
NORAD_CAT_ID   = 43682
ELEMENT_SET_NO = 999
REV_AT_EPOCH   = 40549
BSTAR          = .65445121E-3
MEAN_MOTION_DOT = .27484E-3
MEAN_MOTION_DDOT = 0

CCSDS_OMM_VERS = 2.0
CREATION_DATE  = 
ORIGINATOR     = 

OBJECT_NAME    = SAOCOM 1B
OBJECT_ID      = 2020-059A
CENTER_NAME    = EARTH
REF_FRAME      = TEME
TIME_SYSTEM    = UTC
MEAN_ELEMENT_THEORY = SGP/SGP4

EPOCH          = 2026-03-06T22:57:01.124064
MEAN_MOTION    = 14.82173062
ECCENTRICITY   = .00015046
INCLINATION    = 97.8885
RA_OF_ASC_NODE = 253.2654
ARG_OF_PERICENTER = 81.2285
MEAN_ANOMALY   = 278.9098

EPHEMERIS_TYPE = 0
CLASSIFICATION_TYPE = U
NORAD_CAT_ID   = 46265
ELEMENT_SET_NO = 999
REV_AT_EPOCH   = 29834
BSTAR          = .17595012E-3
MEAN_MOTION_DOT = .1349E-4
MEAN_MOTION_DDOT = 0

CCSDS_OMM_VERS = 2.0
CREATION_DATE  = 
ORIGINATOR     = 

OBJECT_NAME    = COSMOS 2550
OBJECT_ID      = 2021-056A
CENTER_NAME    = EARTH
REF_FRAME      = TEME
TIME_SYSTEM    = UTC
MEAN_ELEMENT_THEORY = SGP/SGP4

EPOCH          = 2026-03-07T16:35:47.029056
MEAN_MOTION    = 15.33832646
ECCENTRICITY   = .00082269
INCLINATION    = 67.1444
RA_OF_ASC_NODE = 46.9763
ARG_OF_PERICENTER = 270.8629
MEAN_ANOMALY   = 89.1583

EPHEMERIS_TYPE = 0
CLASSIFICATION_TYPE = U
NORAD_CAT_ID   = 48865
ELEMENT_SET_NO = 999
REV_AT_EPOCH   = 26315
BSTAR          = -.36994E-7
MEAN_MOTION_DOT = -.193E-5
MEAN_MOTION_DDOT = 0

CCSDS_OMM_VERS = 2.0
CREATION_DATE  = 
ORIGINATOR     = 

OBJECT_NAME    = CZ-2C R/B
OBJECT_ID      = 2022-058K
CENTER_NAME    = EARTH
REF_FRAME      = TEME
TIME_SYSTEM    = UTC
MEAN_ELEMENT_THEORY = SGP/SGP4

EPOCH          = 2026-03-07T03:12:04.859712
MEAN_MOTION    = 15.54005208
ECCENTRICITY   = .00422498
INCLINATION    = 50.1900
RA_OF_ASC_NODE = 331.4375
ARG_OF_PERICENTER = 189.9988
MEAN_ANOMALY   = 170.0146

EPHEMERIS_TYPE = 0
CLASSIFICATION_TYPE = U
NORAD_CAT_ID   = 52794
ELEMENT_SET_NO = 999
REV_AT_EPOCH   = 20973
BSTAR          = .57387059E-3
MEAN_MOTION_DOT = .3906E-3
MEAN_MOTION_DDOT = 0

CCSDS_OMM_VERS = 2.0
CREATION_DATE  = 
ORIGINATOR     = 

OBJECT_NAME    = CZ-2C R/B
OBJECT_ID      = 2022-132E
CENTER_NAME    = EARTH
REF_FRAME      = TEME
TIME_SYSTEM    = UTC
MEAN_ELEMENT_THEORY = SGP/SGP4

EPOCH          = 2026-03-07T13:51:42.693408
MEAN_MOTION    = 15.61630713
ECCENTRICITY   = .0020767
INCLINATION    = 97.2968
RA_OF_ASC_NODE = 69.8304
ARG_OF_PERICENTER = 98.3512
MEAN_ANOMALY   = 262.0101

EPHEMERIS_TYPE = 0
CLASSIFICATION_TYPE = U
NORAD_CAT_ID   = 54039
ELEMENT_SET_NO = 999
REV_AT_EPOCH   = 19004
BSTAR          = .56501E-3
MEAN_MOTION_DOT = .49183E-3
MEAN_MOTION_DDOT = 0

CCSDS_OMM_VERS = 2.0
CREATION_DATE  = 
ORIGINATOR     = 

OBJECT_NAME    = GSLV R/B
OBJECT_ID      = 2022-138AN
CENTER_NAME    = EARTH
REF_FRAME      = TEME
TIME_SYSTEM    = UTC
MEAN_ELEMENT_THEORY = SGP/SGP4

EPOCH          = 2026-03-07T18:46:04.887264
MEAN_MOTION    = 14.96759254
ECCENTRICITY   = .00227971
INCLINATION    = 87.3881
RA_OF_ASC_NODE = 167.0012
ARG_OF_PERICENTER = 153.2839
MEAN_ANOMALY   = 206.9573

EPHEMERIS_TYPE = 0
CLASSIFICATION_TYPE = U
NORAD_CAT_ID   = 54149
ELEMENT_SET_NO = 999
REV_AT_EPOCH   = 18364
BSTAR          = .37521862E-3
MEAN_MOTION_DOT = .4339E-4
MEAN_MOTION_DDOT = 0

