ALOS-2                  
1 39766U 14029A   26066.96040250  .00002298  00000+0  31436-3 0  9993
2 39766  97.9196 165.5826 0001526  96.0698 264.0688 14.79493895636614
YAOGAN-29               
1 41038U 15069A   26067.04020264  .00000899  00000+0  11727-3 0  9992
2 41038  98.0142  95.4649 0001999  40.7727 319.3636 14.82994435555638
ASTRO-H (HITOMI)        
1 41337U 16012A   26066.98152433  .00004905  00000+0  28866-3 0  9993
2 41337  31.0009   7.5702 0009922 313.9796  46.0024 15.09992196551978
HXMT (HUIYAN)           
1 42758U 17034A   26067.00041547  .00008700  00000+0  43245-3 0  9998
2 42758  43.0154  26.0648 0032697 225.7497 134.0666 15.17434335482280
SAOCOM 1A               
1 43641U 18076A   26067.00520972  .00000846  00000+0  11285-3 0  9993
2 43641  97.8887 255.2013 0001294  84.8832 275.2529 14.82167820401112
H-2A R/B                
1 43682U 18084L   26066.85015277  .00027484  00000+0  65445-3 0  9990
2 43682  98.8728 283.8448 0025579  31.5348 328.7421 15.41251089405491
SAOCOM 1B               
1 46265U 20059A   26065.95626301  .00001349  00000+0  17595-3 0  9996
2 46265  97.8885 253.2654 0001504  81.2285 278.9098 14.82173062298346
COSMOS 2550             
1 48865U 21056A   26066.69151654 -.00000193  00000+0 -36994-7 0  9994
2 48865  67.1444  46.9763 0008227 270.8629  89.1583 15.33832646263159
CZ-2C R/B               
1 52794U 22058K   26066.13338958  .00039060  00000+0  57387-3 0  9994
2 52794  50.1900 331.4375 0042249 189.9988 170.0146 15.54005208209733
CZ-2C R/B               
1 54039U 22132E   26066.57757747  .00049183  00000+0  56501-3 0  9994
2 54039  97.2968  69.8304 0020767  98.3512 262.0101 15.61630713190043
GSLV R/B                
1 54149U 22138AN  26066.78200100  .00004339  00000+0  37522-3 0  9997
2 54149  87.3881 167.0012 0022797 153.2839 206.9573 14.96759253183640
